*******************************************************************************
Ephemeris / WWW_USER Mon Mar 24 07:40:35 2025 Pasadena, USA      / Horizons    
*******************************************************************************
Target body name: (2017 SN16)                     {source: JPL#20}
Center body name: Earth (399)                     {source: DE441}
Center-site name: Mauna Kea
*******************************************************************************
Start time      : A.D. 2018-Dec-24 03:59:00.0000 UT      
Stop  time      : A.D. 2018-Dec-24 16:43:00.0000 UT      
Step-size       : 1 minutes
*******************************************************************************
Target pole/equ : undefined
Target radii    : undefined                                                    
Center geodetic : 204.5278, 19.8260847, 4.21024   {E-lon(deg),Lat(deg),Alt(km)}
Center cylindric: 204.5278, 6006.35451, 2151.0229 {E-lon(deg),Dxy(km),Dz(km)}
Center pole/equ : ITRF93                          {East-longitude positive}
Center radii    : 6378.137, 6378.137, 6356.752 km {Equator_a, b, pole_c}       
Target primary  : Sun
Vis. interferer : MOON (R_eq= 1737.400) km        {source: DE441}
Rel. light bend : Sun                             {source: DE441}
Rel. lght bnd GM: 1.3271E+11 km^3/s^2                                          
Small-body perts: Yes                             {source: SB441-N16}
Atmos refraction: NO (AIRLESS)
RA format       : HMS
Time format     : CAL 
Calendar mode   : Mixed Julian/Gregorian
RTS-only print  : NO       
EOP file        : eop.250321.p250617                                           
EOP coverage    : DATA-BASED 1962-JAN-20 TO 2025-MAR-21. PREDICTS-> 2025-JUN-16
Units conversion: 1 au= 149597870.700 km, c= 299792.458 km/s, 1 day= 86400.0 s 
Table cut-offs 1: Elevation (-90.0deg=NO ),Airmass (>38.000=NO), Daylight (YES)
Table cut-offs 2: Solar elongation (  0.0,180.0=NO ),Local Hour Angle( 0.0=NO )
Table cut-offs 3: RA/DEC angular rate (     0.0=NO )                           
*******************************************************************************
Initial IAU76/J2000 heliocentric ecliptic osculating elements (au, days, deg.):
  EPOCH=  2458305.5 ! 2018-Jul-06.00 (TDB)         Residual RMS= .23751        
   EC= .1454884975659386   QR= .8682464985612274   TP= 2458145.5722438502      
   OM= 2.759719470837934   W=  137.1017088998531   IN= 13.38264682844635       
  Equivalent ICRF heliocentric cartesian coordinates (au, au/d):
   X= 5.756755401261899E-01  Y=-7.953424559592890E-01  Z=-6.031561894536019E-01
  VX= 1.332076113263395E-02 VY= 5.454663564585547E-03 VZ= 3.896229736425836E-03
Asteroid physical parameters (km, seconds, rotational period in hours):        
   GM= n.a.                RAD= n.a.               ROTPER= n.a.                
   H= 23.34                G= .150                 B-V= n.a.                   
                           ALBEDO= n.a.            STYP= n.a.                  
*******************************************************************************
 Date__(UT)__HR:MN     R.A._________(ICRF)_________DEC
******************************************************
$$SOE
 2018-Dec-24 06:02  m  20 03 42.652531 +38 11 18.24376
 2018-Dec-24 06:03  m  20 03 42.594787 +38 11 18.40846
 2018-Dec-24 06:04  m  20 03 42.537094 +38 11 18.57312
 2018-Dec-24 06:05  m  20 03 42.479454 +38 11 18.73774
 2018-Dec-24 06:06  m  20 03 42.421866 +38 11 18.90231
 2018-Dec-24 06:07  m  20 03 42.364330 +38 11 19.06683
 2018-Dec-24 06:08  m  20 03 42.306846 +38 11 19.23132
 2018-Dec-24 06:09  m  20 03 42.249414 +38 11 19.39576
 2018-Dec-24 06:10  m  20 03 42.192034 +38 11 19.56017
 2018-Dec-24 06:11  m  20 03 42.134706 +38 11 19.72455
 2018-Dec-24 06:12  m  20 03 42.077430 +38 11 19.88888
 2018-Dec-24 06:13  m  20 03 42.020206 +38 11 20.05319
 2018-Dec-24 06:14  m  20 03 41.963035 +38 11 20.21747
 2018-Dec-24 06:15  m  20 03 41.905915 +38 11 20.38171
 2018-Dec-24 06:16  m  20 03 41.848848 +38 11 20.54593
 2018-Dec-24 06:17  m  20 03 41.791833 +38 11 20.71013
 2018-Dec-24 06:18  m  20 03 41.734870 +38 11 20.87430
 2018-Dec-24 06:19  m  20 03 41.677959 +38 11 21.03845
 2018-Dec-24 06:20  m  20 03 41.621100 +38 11 21.20257
 2018-Dec-24 06:21  m  20 03 41.564293 +38 11 21.36668
 2018-Dec-24 06:22  m  20 03 41.507539 +38 11 21.53077
 2018-Dec-24 06:23  m  20 03 41.450836 +38 11 21.69485
 2018-Dec-24 06:24  m  20 03 41.394186 +38 11 21.85891
 2018-Dec-24 06:25  m  20 03 41.337587 +38 11 22.02297
 2018-Dec-24 06:26  m  20 03 41.281041 +38 11 22.18701
 2018-Dec-24 06:27  m  20 03 41.224547 +38 11 22.35104
 2018-Dec-24 06:28  m  20 03 41.168104 +38 11 22.51507
 2018-Dec-24 06:29  m  20 03 41.111714 +38 11 22.67909
 2018-Dec-24 06:30  m  20 03 41.055376 +38 11 22.84310
 2018-Dec-24 06:31  m  20 03 40.999090 +38 11 23.00712
 2018-Dec-24 06:32  m  20 03 40.942856 +38 11 23.17114
 2018-Dec-24 06:33  m  20 03 40.886674 +38 11 23.33515
 2018-Dec-24 06:34  m  20 03 40.830544 +38 11 23.49917
 2018-Dec-24 06:35  m  20 03 40.774465 +38 11 23.66320
 2018-Dec-24 06:36  m  20 03 40.718439 +38 11 23.82723
 2018-Dec-24 06:37  m  20 03 40.662465 +38 11 23.99128
 2018-Dec-24 06:38  m  20 03 40.606542 +38 11 24.15533
 2018-Dec-24 06:39  m  20 03 40.550671 +38 11 24.31939
 2018-Dec-24 06:40  m  20 03 40.494853 +38 11 24.48347
 2018-Dec-24 06:41  m  20 03 40.439086 +38 11 24.64756
 2018-Dec-24 06:42  m  20 03 40.383370 +38 11 24.81167
 2018-Dec-24 06:43  m  20 03 40.327707 +38 11 24.97580
 2018-Dec-24 06:44  m  20 03 40.272095 +38 11 25.13995
 2018-Dec-24 06:45  m  20 03 40.216535 +38 11 25.30412
 2018-Dec-24 06:46  m  20 03 40.161027 +38 11 25.46832
 2018-Dec-24 06:47  m  20 03 40.105570 +38 11 25.63254
 2018-Dec-24 06:48  m  20 03 40.050165 +38 11 25.79679
 2018-Dec-24 06:49  m  20 03 39.994812 +38 11 25.96107
 2018-Dec-24 06:50  m  20 03 39.939510 +38 11 26.12537
 2018-Dec-24 06:51  m  20 03 39.884259 +38 11 26.28971
 2018-Dec-24 06:52  m  20 03 39.829060 +38 11 26.45409
 2018-Dec-24 06:53  m  20 03 39.773913 +38 11 26.61850
 2018-Dec-24 06:54  m  20 03 39.718817 +38 11 26.78295
 2018-Dec-24 06:55  m  20 03 39.663772 +38 11 26.94743
 2018-Dec-24 06:56  m  20 03 39.608779 +38 11 27.11196
 2018-Dec-24 06:57  m  20 03 39.553837 +38 11 27.27653
 2018-Dec-24 06:58  m  20 03 39.498946 +38 11 27.44114
 2018-Dec-24 06:59  m  20 03 39.444106 +38 11 27.60580
 2018-Dec-24 07:00  m  20 03 39.389318 +38 11 27.77051
 2018-Dec-24 07:01  m  20 03 39.334580 +38 11 27.93527
 2018-Dec-24 07:02  m  20 03 39.279894 +38 11 28.10007
 2018-Dec-24 07:03  m  20 03 39.225259 +38 11 28.26493
 2018-Dec-24 07:04  m  20 03 39.170675 +38 11 28.42985
 2018-Dec-24 07:05  m  20 03 39.116141 +38 11 28.59482
 2018-Dec-24 07:06  m  20 03 39.061659 +38 11 28.75985
 2018-Dec-24 07:07  m  20 03 39.007227 +38 11 28.92493
 2018-Dec-24 07:08  m  20 03 38.952846 +38 11 29.09008
 2018-Dec-24 07:09  m  20 03 38.898516 +38 11 29.25529
 2018-Dec-24 07:10  m  20 03 38.844237 +38 11 29.42056
 2018-Dec-24 07:11  m  20 03 38.790008 +38 11 29.58590
 2018-Dec-24 07:12  m  20 03 38.735830 +38 11 29.75131
 2018-Dec-24 07:13  m  20 03 38.681702 +38 11 29.91679
 2018-Dec-24 07:14  m  20 03 38.627625 +38 11 30.08233
 2018-Dec-24 07:15  m  20 03 38.573598 +38 11 30.24795
 2018-Dec-24 07:16  m  20 03 38.519621 +38 11 30.41365
 2018-Dec-24 07:17  m  20 03 38.465695 +38 11 30.57942
 2018-Dec-24 07:18  m  20 03 38.411819 +38 11 30.74527
 2018-Dec-24 07:19  m  20 03 38.357993 +38 11 30.91119
 2018-Dec-24 07:20  m  20 03 38.304217 +38 11 31.07720
 2018-Dec-24 07:21  m  20 03 38.250491 +38 11 31.24329
 2018-Dec-24 07:22  m  20 03 38.196815 +38 11 31.40946
 2018-Dec-24 07:23  m  20 03 38.143189 +38 11 31.57572
 2018-Dec-24 07:24  m  20 03 38.089613 +38 11 31.74207
 2018-Dec-24 07:25  m  20 03 38.036087 +38 11 31.90850
 2018-Dec-24 07:26  m  20 03 37.982610 +38 11 32.07503
 2018-Dec-24 07:27  m  20 03 37.929183 +38 11 32.24165
 2018-Dec-24 07:28  m  20 03 37.875805 +38 11 32.40836
 2018-Dec-24 07:29  m  20 03 37.822477 +38 11 32.57517
 2018-Dec-24 07:30  m  20 03 37.769198 +38 11 32.74207
 2018-Dec-24 07:31  m  20 03 37.715969 +38 11 32.90907
 2018-Dec-24 07:32  m  20 03 37.662789 +38 11 33.07618
 2018-Dec-24 07:33  m  20 03 37.609658 +38 11 33.24338
 2018-Dec-24 07:34  m  20 03 37.556576 +38 11 33.41069
 2018-Dec-24 07:35  m  20 03 37.503543 +38 11 33.57810
 2018-Dec-24 07:36  m  20 03 37.450559 +38 11 33.74563
 2018-Dec-24 07:37  s  20 03 37.397624 +38 11 33.91325
 2018-Dec-24 07:38  m  20 03 37.344737 +38 11 34.08099
 2018-Dec-24 07:39  m  20 03 37.291900 +38 11 34.24884
 2018-Dec-24 07:40  m  20 03 37.239111 +38 11 34.41681
 2018-Dec-24 07:41  m  20 03 37.186370 +38 11 34.58489
 2018-Dec-24 07:42  m  20 03 37.133678 +38 11 34.75308
 2018-Dec-24 07:43  m  20 03 37.081034 +38 11 34.92139
 2018-Dec-24 07:44  m  20 03 37.028439 +38 11 35.08983
 2018-Dec-24 07:45  m  20 03 36.975892 +38 11 35.25838
 2018-Dec-24 07:46  m  20 03 36.923392 +38 11 35.42706
 2018-Dec-24 07:47  m  20 03 36.870941 +38 11 35.59586
 2018-Dec-24 07:48  m  20 03 36.818538 +38 11 35.76478
 2018-Dec-24 07:49  m  20 03 36.766183 +38 11 35.93384
 2018-Dec-24 07:50  m  20 03 36.713875 +38 11 36.10302
 2018-Dec-24 07:51  m  20 03 36.661615 +38 11 36.27233
 2018-Dec-24 07:52  m  20 03 36.609402 +38 11 36.44178
 2018-Dec-24 07:53  m  20 03 36.557237 +38 11 36.61136
 2018-Dec-24 07:54  m  20 03 36.505119 +38 11 36.78107
 2018-Dec-24 07:55  m  20 03 36.453049 +38 11 36.95092
 2018-Dec-24 07:56  m  20 03 36.401026 +38 11 37.12091
 2018-Dec-24 07:57  m  20 03 36.349049 +38 11 37.29104
 2018-Dec-24 07:58  m  20 03 36.297120 +38 11 37.46131
 2018-Dec-24 07:59  m  20 03 36.245238 +38 11 37.63173
 2018-Dec-24 08:00  m  20 03 36.193402 +38 11 37.80229
 2018-Dec-24 08:01  m  20 03 36.141613 +38 11 37.97299
 2018-Dec-24 08:02  m  20 03 36.089870 +38 11 38.14384
 2018-Dec-24 08:03  m  20 03 36.038174 +38 11 38.31484
 2018-Dec-24 08:04  m  20 03 35.986524 +38 11 38.48600
